{
  "type": "FeatureCollection",
  "features": [
    {
      "type": "Feature",
      "properties": {
        "norad_id": 30218,
        "name": "FENGYUN 1C DEB",
        "group": "fengyun-1c-debris",
        "lat": 79.93555873327401,
        "lon": 7.378272415639119,
        "alt_km": 838.783466681919,
        "timestamp": "2025-12-07T05:38:10.179011+00:00",
        "meta_object_name": "FENGYUN 1C DEB",
        "meta_object_id": "1999-025WB",
        "meta_epoch": "2025-12-03T05:41:23.773344",
        "meta_mean_motion": 14.28604281,
        "meta_eccentricity": 0.0069969,
        "meta_inclination": 98.9855,
        "meta_ra_of_asc_node": 66.3228,
        "meta_arg_of_pericenter": 281.3972,
        "meta_mean_anomaly": 134.7205,
        "meta_ephemeris_type": 0,
        "meta_classification_type": "U",
        "meta_norad_cat_id": 30218,
        "meta_element_set_no": 999,
        "meta_rev_at_epoch": 96973,
        "meta_bstar": 0.0033338,
        "meta_mean_motion_dot": 8.554e-05,
        "meta_mean_motion_ddot": 0,
        "tle_line1": "1 30218U 99025WB  25337.23708071  .00008554  00000+0  33338-2 0  9990",
        "tle_line2": "2 30218  98.9855  66.3228 0069969 281.3972 134.7205 14.28604281969730"
      },
      "geometry": {
        "type": "Point",
        "coordinates": [
          7.378272415639119,
          79.93555873327401
        ]
      }
    },
    {
      "type": "Feature",
      "properties": {
        "norad_id": 30221,
        "name": "FENGYUN 1C DEB",
        "group": "fengyun-1c-debris",
        "lat": 18.176598932944614,
        "lon": 65.62563218451906,
        "alt_km": 658.728926261183,
        "timestamp": "2025-12-07T05:38:10.179021+00:00",
        "meta_object_name": "FENGYUN 1C DEB",
        "meta_object_id": "1999-025WE",
        "meta_epoch": "2025-12-06T11:16:58.035360",
        "meta_mean_motion": 14.45796824,
        "meta_eccentricity": 0.01456911,
        "meta_inclination": 98.9569,
        "meta_ra_of_asc_node": 67.7867,
        "meta_arg_of_pericenter": 59.9908,
        "meta_mean_anomaly": 301.5648,
        "meta_ephemeris_type": 0,
        "meta_classification_type": "U",
        "meta_norad_cat_id": 30221,
        "meta_element_set_no": 999,
        "meta_rev_at_epoch": 99310,
        "meta_bstar": 0.00043538091,
        "meta_mean_motion_dot": 1.706e-05,
        "meta_mean_motion_ddot": 0,
        "tle_line1": "1 30221U 99025WE  25340.47011615  .00001706  00000+0  43538-3 0  9991",
        "tle_line2": "2 30221  98.9569  67.7867 0145691  59.9908 301.5648 14.45796824993102"
      },
      "geometry": {
        "type": "Point",
        "coordinates": [
          65.62563218451906,
          18.176598932944614
        ]
      }
    },
    {
      "type": "Feature",
      "properties": {
        "norad_id": 30222,
        "name": "FENGYUN 1C DEB",
        "group": "fengyun-1c-debris",
        "lat": 75.03116134573719,
        "lon": -129.6247069578328,
        "alt_km": 854.5520713544611,
        "timestamp": "2025-12-07T05:38:10.179031+00:00",
        "meta_object_name": "FENGYUN 1C DEB",
        "meta_object_id": "1999-025WF",
        "meta_epoch": "2025-12-06T16:02:33.908064",
        "meta_mean_motion": 14.04074747,
        "meta_eccentricity": 0.0038283,
        "meta_inclination": 98.8425,
        "meta_ra_of_asc_node": 14.2175,
        "meta_arg_of_pericenter": 53.8845,
        "meta_mean_anomaly": 66.5399,
        "meta_ephemeris_type": 0,
        "meta_classification_type": "U",
        "meta_norad_cat_id": 30222,
        "meta_element_set_no": 999,
        "meta_rev_at_epoch": 96753,
        "meta_bstar": 5.8853459e-05,
        "meta_mean_motion_dot": 5.1e-07,
        "meta_mean_motion_ddot": 0,
        "tle_line1": "1 30222U 99025WF  25340.66844801  .00000051  00000+0  58853-4 0  9993",
        "tle_line2": "2 30222  98.8425  14.2175 0038283  53.8845  66.5399 14.04074747967530"
      },
      "geometry": {
        "type": "Point",
        "coordinates": [
          -129.6247069578328,
          75.03116134573719
        ]
      }
    },
    {
      "type": "Feature",
      "properties": {
        "norad_id": 30224,
        "name": "FENGYUN 1C DEB",
        "group": "fengyun-1c-debris",
        "lat": -24.24596651016181,
        "lon": -164.44053911767236,
        "alt_km": 1007.2458913295059,
        "timestamp": "2025-12-07T05:38:10.179041+00:00",
        "meta_object_name": "FENGYUN 1C DEB",
        "meta_object_id": "1999-025WH",
        "meta_epoch": "2025-12-06T15:24:41.283936",
        "meta_mean_motion": 13.89858681,
        "meta_eccentricity": 0.0111344,
        "meta_inclination": 99.4846,
        "meta_ra_of_asc_node": 19.2735,
        "meta_arg_of_pericenter": 359.6805,
        "meta_mean_anomaly": 121.4244,
        "meta_ephemeris_type": 0,
        "meta_classification_type": "U",
        "meta_norad_cat_id": 30224,
        "meta_element_set_no": 999,
        "meta_rev_at_epoch": 95656,
        "meta_bstar": 0.00058142131,
        "meta_mean_motion_dot": 7.05e-06,
        "meta_mean_motion_ddot": 0,
        "tle_line1": "1 30224U 99025WH  25340.64214449  .00000705  00000+0  58142-3 0  9998",
        "tle_line2": "2 30224  99.4846  19.2735 0111344 359.6805 121.4244 13.89858681956566"
      },
      "geometry": {
        "type": "Point",
        "coordinates": [
          -164.44053911767236,
          -24.24596651016181
        ]
      }
    },
    {
      "type": "Feature",
      "properties": {
        "norad_id": 30225,
        "name": "FENGYUN 1C DEB",
        "group": "fengyun-1c-debris",
        "lat": -53.64063784831409,
        "lon": 176.21742765430588,
        "alt_km": 897.7326587906191,
        "timestamp": "2025-12-07T05:38:10.179051+00:00",
        "meta_object_name": "FENGYUN 1C DEB",
        "meta_object_id": "1999-025WJ",
        "meta_epoch": "2025-12-06T08:13:54.908832",
        "meta_mean_motion": 14.15177828,
        "meta_eccentricity": 0.0100521,
        "meta_inclination": 98.6605,
        "meta_ra_of_asc_node": 7.3001,
        "meta_arg_of_pericenter": 104.0755,
        "meta_mean_anomaly": 268.4826,
        "meta_ephemeris_type": 0,
        "meta_classification_type": "U",
        "meta_norad_cat_id": 30225,
        "meta_element_set_no": 999,
        "meta_rev_at_epoch": 97446,
        "meta_bstar": 0.00029499133,
        "meta_mean_motion_dot": 5.6e-06,
        "meta_mean_motion_ddot": 0,
        "tle_line1": "1 30225U 99025WJ  25340.34299663  .00000560  00000+0  29499-3 0  9999",
        "tle_line2": "2 30225  98.6605   7.3001 0100521 104.0755 268.4826 14.15177828974460"
      },
      "geometry": {
        "type": "Point",
        "coordinates": [
          176.21742765430588,
          -53.64063784831409
        ]
      }
    },
    {
      "type": "Feature",
      "properties": {
        "norad_id": 30229,
        "name": "FENGYUN 1C DEB",
        "group": "fengyun-1c-debris",
        "lat": -63.52444684375718,
        "lon": 59.04548603373484,
        "alt_km": 713.2912384259907,
        "timestamp": "2025-12-07T05:38:10.179061+00:00",
        "meta_object_name": "FENGYUN 1C DEB",
        "meta_object_id": "1999-025WN",
        "meta_epoch": "2025-12-06T15:49:17.693184",
        "meta_mean_motion": 14.60386903,
        "meta_eccentricity": 0.00378148,
        "meta_inclination": 99.0629,
        "meta_ra_of_asc_node": 39.7244,
        "meta_arg_of_pericenter": 59.2004,
        "meta_mean_anomaly": 91.7389,
        "meta_ephemeris_type": 0,
        "meta_classification_type": "U",
        "meta_norad_cat_id": 30229,
        "meta_element_set_no": 999,
        "meta_rev_at_epoch": 98837,
        "meta_bstar": 0.0032776717,
        "meta_mean_motion_dot": 0.00016001,
        "meta_mean_motion_ddot": 0,
        "tle_line1": "1 30229U 99025WN  25340.65923256  .00016001  00000+0  32777-2 0  9998",
        "tle_line2": "2 30229  99.0629  39.7244 0037814  59.2004  91.7389 14.60386903988377"
      },
      "geometry": {
        "type": "Point",
        "coordinates": [
          59.04548603373484,
          -63.52444684375718
        ]
      }
    },
    {
      "type": "Feature",
      "properties": {
        "norad_id": 30231,
        "name": "FENGYUN 1C DEB",
        "group": "fengyun-1c-debris",
        "lat": 47.18102280079787,
        "lon": 16.465301146870214,
        "alt_km": 756.5978189917141,
        "timestamp": "2025-12-07T05:38:10.179076+00:00",
        "meta_object_name": "FENGYUN 1C DEB",
        "meta_object_id": "1999-025WQ",
        "meta_epoch": "2025-12-06T14:41:41.049024",
        "meta_mean_motion": 14.11623989,
        "meta_eccentricity": 0.01287508,
        "meta_inclination": 98.8057,
        "meta_ra_of_asc_node": 25.4841,
        "meta_arg_of_pericenter": 46.6104,
        "meta_mean_anomaly": 79.3178,
        "meta_ephemeris_type": 0,
        "meta_classification_type": "U",
        "meta_norad_cat_id": 30231,
        "meta_element_set_no": 999,
        "meta_rev_at_epoch": 96933,
        "meta_bstar": 0.00091919755,
        "meta_mean_motion_dot": 1.764e-05,
        "meta_mean_motion_ddot": 0,
        "tle_line1": "1 30231U 99025WQ  25340.61228066  .00001764  00000+0  91920-3 0  9990",
        "tle_line2": "2 30231  98.8057  25.4841 0128750  46.6104  79.3178 14.11623989969335"
      },
      "geometry": {
        "type": "Point",
        "coordinates": [
          16.465301146870214,
          47.18102280079787
        ]
      }
    }
  ]
}